[{"OBJECT_NAME":"GALAXY 33 (G-33)","OBJECT_ID":"2022-128A","EPOCH":"2026-03-05T00:25:38.690688","MEAN_MOTION":1.00273895,"ECCENTRICITY":0.00018847,"INCLINATION":0.0175,"RA_OF_ASC_NODE":165.2977,"ARG_OF_PERICENTER":177.9169,"MEAN_ANOMALY":52.9895,"EPHEMERIS_TYPE":0,"CLASSIFICATION_TYPE":"U","NORAD_CAT_ID":54026,"ELEMENT_SET_NO":999,"REV_AT_EPOCH":1269,"BSTAR":0,"MEAN_MOTION_DOT":0,"MEAN_MOTION_DDOT":0},{"OBJECT_NAME":"GALAXY 34 (G-34)","OBJECT_ID":"2022-128B","EPOCH":"2026-03-05T02:10:38.765280","MEAN_MOTION":1.00273187,"ECCENTRICITY":0.00013768,"INCLINATION":0.013,"RA_OF_ASC_NODE":129.5428,"ARG_OF_PERICENTER":217.6718,"MEAN_ANOMALY":79.2813,"EPHEMERIS_TYPE":0,"CLASSIFICATION_TYPE":"U","NORAD_CAT_ID":54027,"ELEMENT_SET_NO":999,"REV_AT_EPOCH":1286,"BSTAR":0,"MEAN_MOTION_DOT":5.0e-7,"MEAN_MOTION_DDOT":0},{"OBJECT_NAME":"GALAXY 31 (G-31)","OBJECT_ID":"2022-153A","EPOCH":"2026-03-05T04:51:55.325088","MEAN_MOTION":1.00272758,"ECCENTRICITY":0.00015009,"INCLINATION":0.0113,"RA_OF_ASC_NODE":189.4745,"ARG_OF_PERICENTER":166.9254,"MEAN_ANOMALY":118.5102,"EPHEMERIS_TYPE":0,"CLASSIFICATION_TYPE":"U","NORAD_CAT_ID":54243,"ELEMENT_SET_NO":999,"REV_AT_EPOCH":609,"BSTAR":0,"MEAN_MOTION_DOT":4.0e-8,"MEAN_MOTION_DDOT":0},{"OBJECT_NAME":"GALAXY 32 (G-32)","OBJECT_ID":"2022-153B","EPOCH":"2026-03-04T04:27:38.803392","MEAN_MOTION":1.00267915,"ECCENTRICITY":0.00030041,"INCLINATION":0.0222,"RA_OF_ASC_NODE":132.7365,"ARG_OF_PERICENTER":225.3208,"MEAN_ANOMALY":139.8078,"EPHEMERIS_TYPE":0,"CLASSIFICATION_TYPE":"U","NORAD_CAT_ID":54244,"ELEMENT_SET_NO":999,"REV_AT_EPOCH":1209,"BSTAR":0,"MEAN_MOTION_DOT":0,"MEAN_MOTION_DDOT":0},{"OBJECT_NAME":"GALAXY 35 (G-35)","OBJECT_ID":"2022-170A","EPOCH":"2026-03-05T04:59:47.070816","MEAN_MOTION":1.00271036,"ECCENTRICITY":0.00020318,"INCLINATION":0.0126,"RA_OF_ASC_NODE":193.9299,"ARG_OF_PERICENTER":151.6515,"MEAN_ANOMALY":159.1994,"EPHEMERIS_TYPE":0,"CLASSIFICATION_TYPE":"U","NORAD_CAT_ID":54741,"ELEMENT_SET_NO":999,"REV_AT_EPOCH":1185,"BSTAR":0,"MEAN_MOTION_DOT":-1.71e-6,"MEAN_MOTION_DDOT":0},{"OBJECT_NAME":"GALAXY 36 (G-36)","OBJECT_ID":"2022-170B","EPOCH":"2026-03-05T05:01:01.951104","MEAN_MOTION":1.00272423,"ECCENTRICITY":0.0002042,"INCLINATION":0.0169,"RA_OF_ASC_NODE":140.9074,"ARG_OF_PERICENTER":257.4067,"MEAN_ANOMALY":110.8733,"EPHEMERIS_TYPE":0,"CLASSIFICATION_TYPE":"U","NORAD_CAT_ID":54742,"ELEMENT_SET_NO":999,"REV_AT_EPOCH":1173,"BSTAR":0,"MEAN_MOTION_DOT":-1.94e-6,"MEAN_MOTION_DDOT":0},{"OBJECT_NAME":"GALAXY 37 (G-37)","OBJECT_ID":"2023-112A","EPOCH":"2026-03-05T02:10:38.765280","MEAN_MOTION":1.00272675,"ECCENTRICITY":0.00020519,"INCLINATION":0.0201,"RA_OF_ASC_NODE":120.7857,"ARG_OF_PERICENTER":227.8815,"MEAN_ANOMALY":79.8085,"EPHEMERIS_TYPE":0,"CLASSIFICATION_TYPE":"U","NORAD_CAT_ID":57493,"ELEMENT_SET_NO":999,"REV_AT_EPOCH":949,"BSTAR":0,"MEAN_MOTION_DOT":3.9e-7,"MEAN_MOTION_DDOT":0}]
